[{"OBJECT_NAME":"SALSAT","OBJECT_ID":"2020-068K","EPOCH":"2026-03-09T22:26:21.804576","MEAN_MOTION":15.28191989,"ECCENTRICITY":0.00082652,"INCLINATION":97.8859,"RA_OF_ASC_NODE":66.0795,"ARG_OF_PERICENTER":295.8051,"MEAN_ANOMALY":64.2334,"EPHEMERIS_TYPE":0,"CLASSIFICATION_TYPE":"U","NORAD_CAT_ID":46495,"ELEMENT_SET_NO":999,"REV_AT_EPOCH":30019,"BSTAR":0.00040842582,"MEAN_MOTION_DOT":0.00011156,"MEAN_MOTION_DDOT":0},{"OBJECT_NAME":"STARLINK-2607","OBJECT_ID":"2021-038AQ","EPOCH":"2026-03-10T00:00:02.999808","MEAN_MOTION":15.2934532,"ECCENTRICITY":0.00013108,"INCLINATION":53.1591,"RA_OF_ASC_NODE":331.3891,"ARG_OF_PERICENTER":90.0816,"MEAN_ANOMALY":260.4954,"EPHEMERIS_TYPE":0,"CLASSIFICATION_TYPE":"U","NORAD_CAT_ID":48391,"ELEMENT_SET_NO":999,"REV_AT_EPOCH":545,"BSTAR":0.0001037746,"MEAN_MOTION_DOT":2.639e-5,"MEAN_MOTION_DDOT":0}]
